{"type": "FeatureCollection", "features": [ {"type": "Feature", "properties": {"norad_id": 30332, "name": "FENGYUN 1C DEB", "group": "fengyun-1c-debris", "lat": 68.2697917857789, "lon": 168.53127289269483, "alt_km": 844.5335710584332, "timestamp": "2025-12-17T10:52:54.628971+00:00", "meta": {"OBJECT_NAME": "FENGYUN 1C DEB", "OBJECT_ID": "1999-025AAT", "EPOCH": "2025-12-16T20:41:15.142848", "MEAN_MOTION": 13.76713145, "ECCENTRICITY": 0.01781356, "INCLINATION": 99.7154, "RA_OF_ASC_NODE": 322.4704, "ARG_OF_PERICENTER": 92.3077, "MEAN_ANOMALY": 326.853, "EPHEMERIS_TYPE": 0, "CLASSIFICATION_TYPE": "U", "NORAD_CAT_ID": 30332, "ELEMENT_SET_NO": 999, "REV_AT_EPOCH": 94772, "BSTAR": 0.00039533612, "MEAN_MOTION_DOT": 3.91e-06, "MEAN_MOTION_DDOT": 0}, "tle": {"line1": "1 30332U 99025AAT 25350.86198082  .00000391  00000+0  39534-3 0  9992", "line2": "2 30332  99.7154 322.4704 0178135  92.3077 326.8530 13.76713145947727"}}, "geometry": {"type": "Point", "coordinates": [168.53127289269483, 68.2697917857789]}}, {"type": "Feature", "properties": {"norad_id": 30334, "name": "FENGYUN 1C DEB", "group": "fengyun-1c-debris", "lat": -35.67733153208577, "lon": 97.46059159933769, "alt_km": 821.2184056189135, "timestamp": "2025-12-17T10:52:54.628982+00:00", "meta": {"OBJECT_NAME": "FENGYUN 1C DEB", "OBJECT_ID": "1999-025AAV", "EPOCH": "2025-12-16T04:19:25.506048", "MEAN_MOTION": 13.92387922, "ECCENTRICITY": 0.01447402, "INCLINATION": 99.0212, "RA_OF_ASC_NODE": 89.6714, "ARG_OF_PERICENTER": 332.4532, "MEAN_ANOMALY": 92.7543, "EPHEMERIS_TYPE": 0, "CLASSIFICATION_TYPE": "U", "NORAD_CAT_ID": 30334, "ELEMENT_SET_NO": 999, "REV_AT_EPOCH": 95269, "BSTAR": 0.0009438953, "MEAN_MOTION_DOT": 1.278e-05, "MEAN_MOTION_DDOT": 0}, "tle": {"line1": "1 30334U 99025AAV 25350.18015632  .00001278  00000+0  94390-3 0  9994", "line2": "2 30334  99.0212  89.6714 0144740 332.4532  92.7543 13.92387922952692"}}, "geometry": {"type": "Point", "coordinates": [97.46059159933769, -35.67733153208577]}}, {"type": "Feature", "properties": {"norad_id": 30335, "name": "FENGYUN 1C DEB", "group": "fengyun-1c-debris", "lat": -34.26859065272447, "lon": -11.232440122257536, "alt_km": 981.147507527543, "timestamp": "2025-12-17T10:52:54.628991+00:00", "meta": {"OBJECT_NAME": "FENGYUN 1C DEB", "OBJECT_ID": "1999-025AAW", "EPOCH": "2025-12-16T23:19:09.285600", "MEAN_MOTION": 14.01361976, "ECCENTRICITY": 0.01330084, "INCLINATION": 98.9047, "RA_OF_ASC_NODE": 342.1654, "ARG_OF_PERICENTER": 119.7592, "MEAN_ANOMALY": 297.1222, "EPHEMERIS_TYPE": 0, "CLASSIFICATION_TYPE": "U", "NORAD_CAT_ID": 30335, "ELEMENT_SET_NO": 999, "REV_AT_EPOCH": 96650, "BSTAR": 2.2464757e-05, "MEAN_MOTION_DOT": -5e-08, "MEAN_MOTION_DDOT": 0}, "tle": {"line1": "1 30335U 99025AAW 25350.97163525 -.00000005  00000+0  22465-4 0  9990", "line2": "2 30335  98.9047 342.1654 0133008 119.7592 297.1222 14.01361976966506"}}, "geometry": {"type": "Point", "coordinates": [-11.232440122257536, -34.26859065272447]}}, {"type": "Feature", "properties": {"norad_id": 30336, "name": "FENGYUN 1C DEB", "group": "fengyun-1c-debris", "lat": 63.38431171053779, "lon": -150.1570611674324, "alt_km": 837.1021463861834, "timestamp": "2025-12-17T10:52:54.629002+00:00", "meta": {"OBJECT_NAME": "FENGYUN 1C DEB", "OBJECT_ID": "1999-025AAX", "EPOCH": "2025-12-16T19:58:00.261408", "MEAN_MOTION": 14.19311502, "ECCENTRICITY": 0.00433306, "INCLINATION": 98.6002, "RA_OF_ASC_NODE": 11.6617, "ARG_OF_PERICENTER": 356.7759, "MEAN_ANOMALY": 184.4482, "EPHEMERIS_TYPE": 0, "CLASSIFICATION_TYPE": "U", "NORAD_CAT_ID": 30336, "ELEMENT_SET_NO": 999, "REV_AT_EPOCH": 97660, "BSTAR": 0.00032429781, "MEAN_MOTION_DOT": 6.44e-06, "MEAN_MOTION_DDOT": 0}, "tle": {"line1": "1 30336U 99025AAX 25350.83194747  .00000644  00000+0  32430-3 0  9996", "line2": "2 30336  98.6002  11.6617 0043330 356.7759 184.4482 14.19311502976605"}}, "geometry": {"type": "Point", "coordinates": [-150.1570611674324, 63.38431171053779]}}, {"type": "Feature", "properties": {"norad_id": 30338, "name": "FENGYUN 1C DEB", "group": "fengyun-1c-debris", "lat": -76.15671117443242, "lon": -155.98357534229277, "alt_km": 700.2265637023684, "timestamp": "2025-12-17T10:52:54.629012+00:00", "meta": {"OBJECT_NAME": "FENGYUN 1C DEB", "OBJECT_ID": "1999-025AAZ", "EPOCH": "2025-12-16T17:40:22.801728", "MEAN_MOTION": 14.47574446, "ECCENTRICITY": 0.02720555, "INCLINATION": 98.4598, "RA_OF_ASC_NODE": 60.4526, "ARG_OF_PERICENTER": 181.7558, "MEAN_ANOMALY": 299.681, "EPHEMERIS_TYPE": 0, "CLASSIFICATION_TYPE": "U", "NORAD_CAT_ID": 30338, "ELEMENT_SET_NO": 999, "REV_AT_EPOCH": 98202, "BSTAR": 0.00084300952, "MEAN_MOTION_DOT": 4.898e-05, "MEAN_MOTION_DDOT": 0}, "tle": {"line1": "1 30338U 99025AAZ 25350.73637502  .00004898  00000+0  84301-3 0  9997", "line2": "2 30338  98.4598  60.4526 0272055 181.7558 299.6810 14.47574446982023"}}, "geometry": {"type": "Point", "coordinates": [-155.98357534229277, -76.15671117443242]}}, {"type": "Feature", "properties": {"norad_id": 30339, "name": "FENGYUN 1C DEB", "group": "fengyun-1c-debris", "lat": -38.217006090408454, "lon": 105.23960451257742, "alt_km": 775.3433456719358, "timestamp": "2025-12-17T10:52:54.629022+00:00", "meta": {"OBJECT_NAME": "FENGYUN 1C DEB", "OBJECT_ID": "1999-025ABA", "EPOCH": "2025-12-16T20:36:37.035072", "MEAN_MOTION": 14.38221825, "ECCENTRICITY": 0.00199259, "INCLINATION": 98.9741, "RA_OF_ASC_NODE": 97.4709, "ARG_OF_PERICENTER": 72.048, "MEAN_ANOMALY": 52.3818, "EPHEMERIS_TYPE": 0, "CLASSIFICATION_TYPE": "U", "NORAD_CAT_ID": 30339, "ELEMENT_SET_NO": 999, "REV_AT_EPOCH": 97486, "BSTAR": 0.0018570143, "MEAN_MOTION_DOT": 5.611e-05, "MEAN_MOTION_DDOT": 0}, "tle": {"line1": "1 30339U 99025ABA 25350.85876198  .00005611  00000+0  18570-2 0  9995", "line2": "2 30339  98.9741  97.4709 0019925  72.0480  52.3818 14.38221825974868"}}, "geometry": {"type": "Point", "coordinates": [105.23960451257742, -38.217006090408454]}}, {"type": "Feature", "properties": {"norad_id": 30340, "name": "FENGYUN 1C DEB", "group": "fengyun-1c-debris", "lat": -22.812038850147985, "lon": 51.96243853489322, "alt_km": 969.4568520707417, "timestamp": "2025-12-17T10:52:54.629032+00:00", "meta": {"OBJECT_NAME": "FENGYUN 1C DEB", "OBJECT_ID": "1999-025ABB", "EPOCH": "2025-12-16T18:29:23.145792", "MEAN_MOTION": 14.04598022, "ECCENTRICITY": 0.01462019, "INCLINATION": 99.0006, "RA_OF_ASC_NODE": 47.4628, "ARG_OF_PERICENTER": 123.7262, "MEAN_ANOMALY": 2.5044, "EPHEMERIS_TYPE": 0, "CLASSIFICATION_TYPE": "U", "NORAD_CAT_ID": 30340, "ELEMENT_SET_NO": 999, "REV_AT_EPOCH": 96837, "BSTAR": 0.000254316, "MEAN_MOTION_DOT": 4.04e-06, "MEAN_MOTION_DDOT": 0}, "tle": {"line1": "1 30340U 99025ABB 25350.77040678  .00000404  00000+0  25432-3 0  9995", "line2": "2 30340  99.0006  47.4628 0146201 123.7262   2.5044 14.04598022968377"}}, "geometry": {"type": "Point", "coordinates": [51.96243853489322, -22.812038850147985]}}, {"type": "Feature", "properties": {"norad_id": 30341, "name": "FENGYUN 1C DEB", "group": "fengyun-1c-debris", "lat": -34.95531163684775, "lon": -113.68255730883912, "alt_km": 776.9836391194021, "timestamp": "2025-12-17T10:52:54.629042+00:00", "meta": {"OBJECT_NAME": "FENGYUN 1C DEB", "OBJECT_ID": "1999-025ABC", "EPOCH": "2025-12-16T15:15:40.495968", "MEAN_MOTION": 14.34159201, "ECCENTRICITY": 0.00512322, "INCLINATION": 99.2185, "RA_OF_ASC_NODE": 238.9278, "ARG_OF_PERICENTER": 46.2152, "MEAN_ANOMALY": 20.4803, "EPHEMERIS_TYPE": 0, "CLASSIFICATION_TYPE": "U", "NORAD_CAT_ID": 30341, "ELEMENT_SET_NO": 999, "REV_AT_EPOCH": 97137, "BSTAR": 0.0023643512, "MEAN_MOTION_DOT": 6.677e-05, "MEAN_MOTION_DDOT": 0}, "tle": {"line1": "1 30341U 99025ABC 25350.63588537  .00006677  00000+0  23644-2 0  9992", "line2": "2 30341  99.2185 238.9278 0051232  46.2152  20.4803 14.34159201971373"}}, "geometry": {"type": "Point", "coordinates": [-113.68255730883912, -34.95531163684775]}}, {"type": "Feature", "properties": {"norad_id": 30342, "name": "FENGYUN 1C DEB", "group": "fengyun-1c-debris", "lat": -59.2656628759509, "lon": -171.08505625579798, "alt_km": 1092.9000979853581, "timestamp": "2025-12-17T10:52:54.629052+00:00", "meta": {"OBJECT_NAME": "FENGYUN 1C DEB", "OBJECT_ID": "1999-025ABD", "EPOCH": "2025-12-16T10:58:03.963648", "MEAN_MOTION": 13.80049473, "ECCENTRICITY": 0.01683373, "INCLINATION": 100.1956, "RA_OF_ASC_NODE": 170.2237, "ARG_OF_PERICENTER": 113.1292, "MEAN_ANOMALY": 278.5402, "EPHEMERIS_TYPE": 0, "CLASSIFICATION_TYPE": "U", "NORAD_CAT_ID": 30342, "ELEMENT_SET_NO": 999, "REV_AT_EPOCH": 94940, "BSTAR": 0.00061755159, "MEAN_MOTION_DOT": 6.64e-06, "MEAN_MOTION_DDOT": 0}, "tle": {"line1": "1 30342U 99025ABD 25350.45699032  .00000664  00000+0  61755-3 0  9992", "line2": "2 30342 100.1956 170.2237 0168337 113.1292 278.5402 13.80049473949408"}}, "geometry": {"type": "Point", "coordinates": [-171.08505625579798, -59.2656628759509]}}, {"type": "Feature", "properties": {"norad_id": 30344, "name": "FENGYUN 1C DEB", "group": "fengyun-1c-debris", "lat": 17.319598382812096, "lon": -103.47968696063566, "alt_km": 716.9879027762136, "timestamp": "2025-12-17T10:52:54.629062+00:00", "meta": {"OBJECT_NAME": "FENGYUN 1C DEB", "OBJECT_ID": "1999-025ABF", "EPOCH": "2025-12-16T04:38:22.011648", "MEAN_MOTION": 14.51822927, "ECCENTRICITY": 0.00075056, "INCLINATION": 98.8206, "RA_OF_ASC_NODE": 72.4226, "ARG_OF_PERICENTER": 111.8449, "MEAN_ANOMALY": 308.2224, "EPHEMERIS_TYPE": 0, "CLASSIFICATION_TYPE": "U", "NORAD_CAT_ID": 30344, "ELEMENT_SET_NO": 999, "REV_AT_EPOCH": 98127, "BSTAR": 0.0016680742, "MEAN_MOTION_DOT": 6.672e-05, "MEAN_MOTION_DDOT": 0}, "tle": {"line1": "1 30344U 99025ABF 25350.19331032  .00006672  00000+0  16681-2 0  9990", "line2": "2 30344  98.8206  72.4226 0007505 111.8449 308.2224 14.51822927981276"}}, "geometry": {"type": "Point", "coordinates": [-103.47968696063566, 17.319598382812096]}}]}